RANGE-A                 
1 43773U 18099R   26068.70590171  .00005536  00000+0  32166-3 0  9992
2 43773  97.4107 114.1927 0009674 340.4473  19.6386 15.12458640397457
STARLINK-3820           
1 52364U 22045AK  26068.63832125 -.00000695  00000+0 -25602-4 0  9995
2 52364  53.2173 189.2632 0001230  77.3930 282.7199 15.08834235215914
